start=new Date('2022-11-27T00:00:00.000Z').valueOf();
sats=[{"SEMIMAJOR_AXIS":"6925.358","OBJECT_TYPE":"PAYLOAD","DECAY_DATE":null,"MEAN_MOTION":"15.06397044","TIME_SYSTEM":"UTC","RA_OF_ASC_NODE":"164.0197","RCS_SIZE":"LARGE","BSTAR":"-0.00001691300000","EPHEMERIS_TYPE":"0","INCLINATION":"53.0544","CENTER_NAME":"EARTH","OBJECT_ID":"2021-040Q","MEAN_MOTION_DOT":"-0.00000533","ARG_OF_PERICENTER":"71.5457","OBJECT_NAME":"STARLINK-2644","REV_AT_EPOCH":"8591","TLE_LINE2":"2 48442  53.0544 164.0197 0001665  71.5457 288.5712 15.06397044 85915","ECCENTRICITY":"0.00016650","ELEMENT_SET_NO":"999","PERIAPSIS":"546.070","REF_FRAME":"TEME","MEAN_MOTION_DDOT":"0.0000000000000","EPOCH":"2022-11-26T17:15:31.773600","TLE_LINE1":"1 48442U 21040Q   22330.71911775 -.00000533  00000-0 -16913-4 0  9994","NORAD_CAT_ID":"48442","SITE":"AFETR","FILE":"3671048","LAUNCH_DATE":"2021-05-09","CLASSIFICATION_TYPE":"U","COUNTRY_CODE":"US","GP_ID":"218891920","MEAN_ANOMALY":"288.5712","APOAPSIS":"548.376","MEAN_ELEMENT_THEORY":"SGP4","PERIOD":"95.592"},{"REV_AT_EPOCH":"8593","OBJECT_NAME":"STARLINK-2663","ARG_OF_PERICENTER":"75.4127","MEAN_MOTION_DOT":"-0.00000028","MEAN_MOTION_DDOT":"0.0000000000000","PERIAPSIS":"546.090","REF_FRAME":"TEME","ELEMENT_SET_NO":"999","ECCENTRICITY":"0.00016300","TLE_LINE2":"2 48443  53.0529 163.4361 0001630  75.4127 284.7043 15.06398353 85935","EPOCH":"2022-11-26T20:21:18.222048","TLE_LINE1":"1 48443U 21040R   22330.84812757 -.00000028  00000-0  17048-4 0  9997","SITE":"AFETR","NORAD_CAT_ID":"48443","COUNTRY_CODE":"US","GP_ID":"218892172","CLASSIFICATION_TYPE":"U","LAUNCH_DATE":"2021-05-09","FILE":"3671048","MEAN_ELEMENT_THEORY":"SGP4","APOAPSIS":"548.347","PERIOD":"95.592","MEAN_ANOMALY":"284.7043","OBJECT_TYPE":"PAYLOAD","SEMIMAJOR_AXIS":"6925.354","TIME_SYSTEM":"UTC","MEAN_MOTION":"15.06398353","DECAY_DATE":null,"RCS_SIZE":"LARGE","RA_OF_ASC_NODE":"163.4361","EPHEMERIS_TYPE":"0","BSTAR":"0.00001704800000","INCLINATION":"53.0529","OBJECT_ID":"2021-040R","CENTER_NAME":"EARTH"},{"INCLINATION":"53.0543","CENTER_NAME":"EARTH","OBJECT_ID":"2021-040S","RA_OF_ASC_NODE":"163.4529","RCS_SIZE":"LARGE","BSTAR":"0.00011766000000","EPHEMERIS_TYPE":"0","SEMIMAJOR_AXIS":"6925.366","OBJECT_TYPE":"PAYLOAD","DECAY_DATE":null,"MEAN_MOTION":"15.06394173","TIME_SYSTEM":"UTC","LAUNCH_DATE":"2021-05-09","FILE":"3671048","CLASSIFICATION_TYPE":"U","GP_ID":"218892921","COUNTRY_CODE":"US","MEAN_ANOMALY":"292.2101","APOAPSIS":"548.528","MEAN_ELEMENT_THEORY":"SGP4","PERIOD":"95.593","NORAD_CAT_ID":"48444","SITE":"AFETR","EPOCH":"2022-11-26T20:15:59.561568","TLE_LINE1":"1 48444U 21040S   22330.84443937  .00001471  00000-0  11766-3 0  9990","MEAN_MOTION_DOT":"0.00001471","ARG_OF_PERICENTER":"67.9087","OBJECT_NAME":"STARLINK-2645","REV_AT_EPOCH":"8593","TLE_LINE2":"2 48444  53.0543 163.4529 0001872  67.9087 292.2101 15.06394173 85932","ELEMENT_SET_NO":"999","ECCENTRICITY":"0.00018720","MEAN_MOTION_DDOT":"0.0000000000000","PERIAPSIS":"545.935","REF_FRAME":"TEME"},{"EPOCH":"2022-11-26T20:10:39.120384","TLE_LINE1":"1 48445U 21040T   22330.84073056  .00004607  00000-0  32777-3 0  9991","REV_AT_EPOCH":"8593","OBJECT_NAME":"STARLINK-2634","ARG_OF_PERICENTER":"57.0352","MEAN_MOTION_DOT":"0.00004607","REF_FRAME":"TEME","PERIAPSIS":"545.685","MEAN_MOTION_DDOT":"0.0000000000000","ECCENTRICITY":"0.00021110","ELEMENT_SET_NO":"999","TLE_LINE2":"2 48445  53.0535 163.4644 0002111  57.0352 303.0840 15.06421619 85931","GP_ID":"218891670","COUNTRY_CODE":"US","CLASSIFICATION_TYPE":"U","LAUNCH_DATE":"2021-05-09","FILE":"3671048","APOAPSIS":"548.609","PERIOD":"95.591","MEAN_ELEMENT_THEORY":"SGP4","MEAN_ANOMALY":"303.0840","SITE":"AFETR","NORAD_CAT_ID":"48445","OBJECT_TYPE":"PAYLOAD","SEMIMAJOR_AXIS":"6925.282","TIME_SYSTEM":"UTC","MEAN_MOTION":"15.06421619","DECAY_DATE":null,"INCLINATION":"53.0535","OBJECT_ID":"2021-040T","CENTER_NAME":"EARTH","RCS_SIZE":"LARGE","RA_OF_ASC_NODE":"163.4644","EPHEMERIS_TYPE":"0","BSTAR":"0.00032777000000"},{"OBJECT_TYPE":"PAYLOAD","SEMIMAJOR_AXIS":"6925.348","MEAN_MOTION":"15.06400141","TIME_SYSTEM":"UTC","DECAY_DATE":null,"RA_OF_ASC_NODE":"163.4870","RCS_SIZE":"LARGE","BSTAR":"0.00013957000000","EPHEMERIS_TYPE":"0","INCLINATION":"53.0526","OBJECT_ID":"2021-040U","CENTER_NAME":"EARTH","OBJECT_NAME":"STARLINK-2247","REV_AT_EPOCH":"8593","MEAN_MOTION_DOT":"0.00001798","ARG_OF_PERICENTER":"61.3899","REF_FRAME":"TEME","PERIAPSIS":"545.855","MEAN_MOTION_DDOT":"0.0000000000000","TLE_LINE2":"2 48446  53.0526 163.4870 0001961  61.3899 298.7287 15.06400141 85931","ELEMENT_SET_NO":"999","ECCENTRICITY":"0.00019610","EPOCH":"2022-11-26T20:05:22.861824","TLE_LINE1":"1 48446U 21040U   22330.83707016  .00001798  00000-0  13957-3 0  9998","NORAD_CAT_ID":"48446","SITE":"AFETR","CLASSIFICATION_TYPE":"U","GP_ID":"218891421","COUNTRY_CODE":"US","FILE":"3671048","LAUNCH_DATE":"2021-05-09","PERIOD":"95.592","APOAPSIS":"548.571","MEAN_ELEMENT_THEORY":"SGP4","MEAN_ANOMALY":"298.7287"},{"INCLINATION":"53.0549","OBJECT_ID":"2021-040V","CENTER_NAME":"EARTH","RA_OF_ASC_NODE":"163.5075","RCS_SIZE":"LARGE","BSTAR":"-0.00000302730000","EPHEMERIS_TYPE":"0","OBJECT_TYPE":"PAYLOAD","SEMIMAJOR_AXIS":"6925.352","MEAN_MOTION":"15.06398778","TIME_SYSTEM":"UTC","DECAY_DATE":null,"CLASSIFICATION_TYPE":"U","GP_ID":"218892672","COUNTRY_CODE":"US","LAUNCH_DATE":"2021-05-09","FILE":"3671048","PERIOD":"95.592","APOAPSIS":"548.553","MEAN_ELEMENT_THEORY":"SGP4","MEAN_ANOMALY":"301.0673","NORAD_CAT_ID":"48447","SITE":"AFETR","EPOCH":"2022-11-26T20:00:04.079520","TLE_LINE1":"1 48447U 21040V   22330.83338055 -.00000327  00000-0 -30273-5 0  9993","OBJECT_NAME":"STARLINK-2269","REV_AT_EPOCH":"8593","MEAN_MOTION_DOT":"-0.00000327","ARG_OF_PERICENTER":"59.0505","MEAN_MOTION_DDOT":"0.0000000000000","PERIAPSIS":"545.881","REF_FRAME":"TEME","TLE_LINE2":"2 48447  53.0549 163.5075 0001929  59.0505 301.0673 15.06398778 85936","ELEMENT_SET_NO":"999","ECCENTRICITY":"0.00019290"},{"EPHEMERIS_TYPE":"0","BSTAR":"0.00015306000000","RCS_SIZE":"LARGE","RA_OF_ASC_NODE":"163.9845","CENTER_NAME":"EARTH","OBJECT_ID":"2021-040W","INCLINATION":"53.0535","DECAY_DATE":null,"TIME_SYSTEM":"UTC","MEAN_MOTION":"15.06406436","SEMIMAJOR_AXIS":"6925.329","OBJECT_TYPE":"PAYLOAD","SITE":"AFETR","NORAD_CAT_ID":"48448","MEAN_ANOMALY":"301.0451","APOAPSIS":"548.508","MEAN_ELEMENT_THEORY":"SGP4","PERIOD":"95.592","LAUNCH_DATE":"2021-05-09","FILE":"3671048","COUNTRY_CODE":"US","GP_ID":"218892422","CLASSIFICATION_TYPE":"U","ECCENTRICITY":"0.00018970","ELEMENT_SET_NO":"999","TLE_LINE2":"2 48448  53.0535 163.9845 0001897  59.0725 301.0451 15.06406436 85912","PERIAPSIS":"545.880","MEAN_MOTION_DDOT":"0.0000000000000","REF_FRAME":"TEME","ARG_OF_PERICENTER":"59.0725","MEAN_MOTION_DOT":"0.00001999","REV_AT_EPOCH":"8591","OBJECT_NAME":"STARLINK-2632","TLE_LINE1":"1 48448U 21040W   22330.72553471  .00001999  00000-0  15306-3 0  9995","EPOCH":"2022-11-26T17:24:46.198944"},{"MEAN_MOTION":"15.06398466","TIME_SYSTEM":"UTC","DECAY_DATE":null,"OBJECT_TYPE":"PAYLOAD","SEMIMAJOR_AXIS":"6925.353","OBJECT_ID":"2021-040X","CENTER_NAME":"EARTH","INCLINATION":"53.0536","BSTAR":"0.00010385000000","EPHEMERIS_TYPE":"0","RA_OF_ASC_NODE":"163.5169","RCS_SIZE":"LARGE","TLE_LINE1":"1 48449U 21040X   22330.82969069  .00001265  00000-0  10385-3 0  9999","EPOCH":"2022-11-26T19:54:45.275616","MEAN_MOTION_DDOT":"0.0000000000000","PERIAPSIS":"545.965","REF_FRAME":"TEME","TLE_LINE2":"2 48449  53.0536 163.5169 0001810  66.2081 293.9098 15.06398466 85930","ECCENTRICITY":"0.00018100","ELEMENT_SET_NO":"999","OBJECT_NAME":"STARLINK-2655","REV_AT_EPOCH":"8593","MEAN_MOTION_DOT":"0.00001265","ARG_OF_PERICENTER":"66.2081","APOAPSIS":"548.472","MEAN_ELEMENT_THEORY":"SGP4","PERIOD":"95.592","MEAN_ANOMALY":"293.9098","CLASSIFICATION_TYPE":"U","COUNTRY_CODE":"US","GP_ID":"218891171","LAUNCH_DATE":"2021-05-09","FILE":"3671048","NORAD_CAT_ID":"48449","SITE":"AFETR"},{"EPHEMERIS_TYPE":"0","BSTAR":"0.00027402000000","RCS_SIZE":"LARGE","RA_OF_ASC_NODE":"163.5315","CENTER_NAME":"EARTH","OBJECT_ID":"2021-040Y","INCLINATION":"53.0525","DECAY_DATE":null,"TIME_SYSTEM":"UTC","MEAN_MOTION":"15.06412164","SEMIMAJOR_AXIS":"6925.311","OBJECT_TYPE":"PAYLOAD","SITE":"AFETR","NORAD_CAT_ID":"48450","MEAN_ANOMALY":"300.1269","PERIOD":"95.591","APOAPSIS":"548.653","MEAN_ELEMENT_THEORY":"SGP4","LAUNCH_DATE":"2021-05-09","FILE":"3671048","COUNTRY_CODE":"US","GP_ID":"218891921","CLASSIFICATION_TYPE":"U","ECCENTRICITY":"0.00021330","ELEMENT_SET_NO":"999","TLE_LINE2":"2 48450  53.0525 163.5315 0002133  59.9932 300.1269 15.06412164 85939","MEAN_MOTION_DDOT":"0.0000000000000","PERIAPSIS":"545.699","REF_FRAME":"TEME","ARG_OF_PERICENTER":"59.9932","MEAN_MOTION_DOT":"0.00003803","REV_AT_EPOCH":"8593","OBJECT_NAME":"STARLINK-2660","TLE_LINE1":"1 48450U 21040Y   22330.82600699  .00003803  00000-0  27402-3 0  9990","EPOCH":"2022-11-26T19:49:27.003936"},{"EPHEMERIS_TYPE":"0","BSTAR":"0.00012169000000","RCS_SIZE":"LARGE","RA_OF_ASC_NODE":"163.5722","CENTER_NAME":"EARTH","OBJECT_ID":"2021-040Z","INCLINATION":"53.0540","DECAY_DATE":null,"TIME_SYSTEM":"UTC","MEAN_MOTION":"15.06390596","SEMIMAJOR_AXIS":"6925.377","OBJECT_TYPE":"PAYLOAD","SITE":"AFETR","NORAD_CAT_ID":"48451","MEAN_ANOMALY":"279.1724","PERIOD":"95.593","APOAPSIS":"548.253","MEAN_ELEMENT_THEORY":"SGP4","LAUNCH_DATE":"2021-05-09","FILE":"3671048","GP_ID":"218892173","COUNTRY_CODE":"US","CLASSIFICATION_TYPE":"U","ECCENTRICITY":"0.00014600","ELEMENT_SET_NO":"999","TLE_LINE2":"2 48451  53.0540 163.5722 0001460  80.9431 279.1724 15.06390596 85934","PERIAPSIS":"546.231","MEAN_MOTION_DDOT":"0.0000000000000","REF_FRAME":"TEME","ARG_OF_PERICENTER":"80.9431","MEAN_MOTION_DOT":"0.00001531","REV_AT_EPOCH":"8593","OBJECT_NAME":"STARLINK-2652","TLE_LINE1":"1 48451U 21040Z   22330.82507777  .00001531  00000-0  12169-3 0  9994","EPOCH":"2022-11-26T19:48:06.719328"}];
